[{"OBJECT_NAME":"SITRO-AIS 8 (ANOKHIN)","OBJECT_ID":"2023-091AD","EPOCH":"2026-03-09T23:44:40.058592","MEAN_MOTION":15.29359179,"ECCENTRICITY":0.0012509,"INCLINATION":97.5169,"RA_OF_ASC_NODE":133.2823,"ARG_OF_PERICENTER":92.0171,"MEAN_ANOMALY":268.2501,"EPHEMERIS_TYPE":0,"CLASSIFICATION_TYPE":"U","NORAD_CAT_ID":57193,"ELEMENT_SET_NO":999,"REV_AT_EPOCH":14927,"BSTAR":0.00064982524,"MEAN_MOTION_DOT":0.00018494,"MEAN_MOTION_DDOT":0},{"OBJECT_NAME":"STARLINK-35104","OBJECT_ID":"2025-210K","EPOCH":"2026-03-09T21:13:10.559136","MEAN_MOTION":15.30210038,"ECCENTRICITY":0.00012873,"INCLINATION":53.1572,"RA_OF_ASC_NODE":305.9794,"ARG_OF_PERICENTER":127.6005,"MEAN_ANOMALY":232.5113,"EPHEMERIS_TYPE":0,"CLASSIFICATION_TYPE":"U","NORAD_CAT_ID":65631,"ELEMENT_SET_NO":999,"REV_AT_EPOCH":2775,"BSTAR":0.00091469647,"MEAN_MOTION_DOT":0.00026838,"MEAN_MOTION_DDOT":0}]
